     2.10           NAVIGATION                              RINEX VERSION / TYPE
fic2rin                                 07/06/2008 01:10:31 PGM / RUN BY / DATE
                                                            END OF HEADER
12 08  7  5 11 59 44.0 -.357575714588D-03  .682121026330D-12  .000000000000D+00
     .150000000000D+02 -.120593750000D+03  .403552523868D-08 -.276461642731D+00
    -.620074570179D-05  .335576280486D-02  .995956361294D-05  .515358392143D+04
     .561584000000D+06 -.987201929092D-07 -.288349089023D+01 -.191852450371D-06
     .964631520295D+00  .193156250000D+03 -.910227122750D+00 -.779675333750D-08
    -.126790995640D-09  .100000000000D+01  .148600000000D+04  .000000000000D+00
     .240000000000D+01  .000000000000D+00 -.116415321827D-07  .150000000000D+02
     .559206000000D+06  .400000000000D+01
12 08  7  5 13 59 44.0 -.357571057975D-03  .682121026330D-12  .000000000000D+00
     .160000000000D+02 -.130656250000D+03  .415445876417D-08  .773798795666D+00
    -.697374343872D-05  .335704290774D-02  .100322067738D-04  .515358621597D+04
     .568784000000D+06  .763684511185D-07 -.288354687171D+01 -.409781932831D-07
     .964629532189D+00  .189406250000D+03 -.910256489368D+00 -.794604527039D-08
    -.251439044874D-09  .100000000000D+01  .148600000000D+04  .000000000000D+00
     .240000000000D+01  .000000000000D+00 -.116415321827D-07  .160000000000D+02
     .561606000000D+06  .400000000000D+01
16 08  7  5 13 59 44.0  .118338968605D-03 -.170530256582D-11  .000000000000D+00
     .390000000000D+02 -.109625000000D+03  .401731019424D-08 -.178208274253D+01
    -.568665564060D-05  .479072367307D-02  .103153288364D-04  .515363529396D+04
     .568784000000D+06 -.651925802231D-07 -.286712691973D+01  .204890966415D-07
     .966292684255D+00  .185000000000D+03 -.457109802332D+00 -.783211195319D-08
    -.492877673191D-10  .100000000000D+01  .148600000000D+04  .000000000000D+00
     .240000000000D+01  .000000000000D+00 -.977888703346D-08  .390000000000D+02
     .561606000000D+06  .400000000000D+01
 2 08  7  5 14  0  0.0  .203782226890D-03 -.204636307899D-11  .000000000000D+00
     .280000000000D+02 -.515625000000D+01  .535058001599D-08  .239093573122D+01
    -.411644577980D-06  .876314425841D-02  .500306487083D-05  .515373761749D+04
     .568800000000D+06  .353902578354D-07 -.800893719387D+00  .132247805595D-06
     .942917049811D+00  .269031250000D+03  .259979543944D+01 -.834320467082D-08
    -.166078346401D-09  .100000000000D+01  .148600000000D+04  .000000000000D+00
     .240000000000D+01  .000000000000D+00 -.172294676304D-07  .280000000000D+02
     .561606000000D+06  .400000000000D+01
 3 08  7  5 14  0  0.0  .251438003033D-03  .522959453519D-11  .000000000000D+00
     .950000000000D+02  .131875000000D+02  .512771358985D-08  .201500236073D+01
     .627711415291D-06  .107663656818D-01  .988319516182D-05  .515369268608D+04
     .568800000000D+06 -.203028321266D-06 -.194549102553D+01 -.195577740669D-06
     .925706599807D+00  .171187500000D+03  .820658889565D+00 -.829463121897D-08
     .581809949005D-09  .100000000000D+01  .148600000000D+04  .000000000000D+00
     .240000000000D+01  .000000000000D+00 -.419095158577D-08  .950000000000D+02
     .561606000000D+06  .400000000000D+01
 4 08  7  5 14  0  0.0 -.107740983367D-03 -.954969436862D-11  .000000000000D+00
     .100000000000D+02 -.111562500000D+02  .534236538811D-08 -.119298319581D+01
    -.631436705589D-06  .806276593357D-02  .483356416225D-05  .515379051781D+04
     .568800000000D+06  .128522515297D-06 -.782078521395D+00 -.117346644402D-06
     .942226710473D+00  .267812500000D+03  .379499443972D+00 -.842820821156D-08
    -.564309220030D-10  .100000000000D+01  .148600000000D+04  .000000000000D+00
     .240000000000D+01  .000000000000D+00 -.605359673500D-08  .100000000000D+02
     .561606000000D+06  .400000000000D+01
 5 08  7  5 14  0  0.0 -.369166955352D-03  .156887836056D-10  .000000000000D+00
     .780000000000D+02 -.133750000000D+03  .463805033627D-08 -.153438749520D+01
    -.695325434208D-05  .896412238944D-02  .891648232937D-05  .515357298088D+04
     .568800000000D+06  .264495611191D-06 -.297778154293D+01  .175088644028D-06
     .943397340446D+00  .197593750000D+03  .123306994243D+01 -.812891003030D-08
    -.323942064916D-09  .100000000000D+01  .148600000000D+04  .000000000000D+00
     .485000000000D+01  .000000000000D+00 -.419095158577D-08  .780000000000D+02
     .561606000000D+06  .400000000000D+01
 6 08  7  5 14  0  0.0  .157458242029D-03  .454747350886D-11  .000000000000D+00
     .210000000000D+02  .243437500000D+02  .499806533234D-08 -.162084936082D+01
     .147707760334D-05  .590940949041D-02  .916235148907D-05  .515372966576D+04
     .568800000000D+06  .689178705215D-07 -.188052747986D+01  .102445483208D-06
     .933215042941D+00  .187093750000D+03 -.163874539861D+01 -.824427197845D-08
     .615739933754D-09  .100000000000D+01  .148600000000D+04  .000000000000D+00
     .240000000000D+01  .000000000000D+00 -.465661287308D-08  .210000000000D+02
     .561606000000D+06  .400000000000D+01
 7 08  7  5 14  0  0.0 -.906130298972D-05  .613908923697D-11  .000000000000D+00
     .470000000000D+02 -.564375000000D+02  .482091509618D-08  .780502900107D+00
    -.319257378578D-05  .186462432612D-02  .996515154839D-06  .515370640373D+04
     .568800000000D+06  .372529029846D-08  .235043851174D+01 -.558793544769D-07
     .962856203374D+00  .358250000000D+03  .262247546657D+01 -.853285542768D-08
    -.326085011321D-09  .100000000000D+01  .148600000000D+04  .000000000000D+00
     .240000000000D+01  .000000000000D+00 -.107102096081D-07  .470000000000D+02
     .561606000000D+06  .400000000000D+01
 8 08  7  5 14  0  0.0 -.160499941558D-03 -.170530256582D-11  .000000000000D+00
     .640000000000D+02 -.612500000000D+02  .435696719946D-08 -.569978514007D-01
    -.346824526787D-05  .102984827245D-01  .189058482647D-05  .515373243713D+04
     .568800000000D+06  .819563865662D-07  .240403669952D+01 -.968575477600D-07
     .984068114684D+00  .355093750000D+03  .288245080814D+01 -.841177895579D-08
    -.327870799992D-09  .100000000000D+01  .148600000000D+04  .000000000000D+00
     .240000000000D+01  .000000000000D+00 -.372529029846D-08  .640000000000D+02
     .561606000000D+06  .400000000000D+01
 9 08  7  5 14  0  0.0  .388594344258D-05  .170530256582D-11  .000000000000D+00
     .500000000000D+02 -.294687500000D+02  .484591613757D-08 -.450556646167D+00
    -.136531889439D-05  .200968799181D-01  .143609941006D-05  .515365986824D+04
     .568800000000D+06 -.223517417908D-06  .231403723612D+01  .134110450745D-06
     .971854600776D+00  .357437500000D+03  .141652012558D+01 -.891715714967D-08
    -.142863093678D-09  .100000000000D+01  .148600000000D+04  .000000000000D+00
     .240000000000D+01  .000000000000D+00 -.558793544769D-08  .500000000000D+02
     .561606000000D+06  .400000000000D+01
10 08  7  5 14  0  0.0 -.267149880528D-05 -.227373675443D-12  .000000000000D+00
     .690000000000D+02  .355312500000D+02  .431589406003D-08 -.304669970435D+01
     .172667205334D-05  .797504163347D-02  .120140612125D-04  .515366946602D+04
     .568800000000D+06 -.782310962677D-07  .280758884129D+00 -.163912773132D-06
     .963480919133D+00  .151531250000D+03  .561495983944D+00 -.765817613663D-08
    -.428946438769D-09  .100000000000D+01  .148600000000D+04  .000000000000D+00
     .240000000000D+01  .000000000000D+00 -.232830643654D-08  .690000000000D+02
     .561606000000D+06  .400000000000D+01
11 08  7  5 14  0  0.0  .238069333136D-04 -.454747350886D-12  .000000000000D+00
     .470000000000D+02  .556250000000D+01  .665456290354D-08  .333390887663D+00
     .312924385071D-06  .814218807500D-02  .395253300667D-05  .515362760735D+04
     .568800000000D+06  .372529029846D-07 -.984561845147D+00  .141561031342D-06
     .890598428199D+00  .267031250000D+03  .593539388989D+00 -.924538510740D-08
     .382158775590D-10  .100000000000D+01  .148600000000D+04  .000000000000D+00
     .240000000000D+01  .000000000000D+00 -.116415321827D-07  .470000000000D+02
     .561606000000D+06  .400000000000D+01
13 08  7  5 14  0  0.0  .262605957687D-03  .147792889038D-11  .000000000000D+00
     .220000000000D+02  .123187500000D+03  .390159108836D-08  .290019927406D+01
     .646151602268D-05  .382216332946D-02  .562332570553D-05  .515361379814D+04
     .568800000000D+06  .106170773506D-06  .135058341754D+01 -.726431608200D-07
     .995317215940D+00  .286281250000D+03  .149709615243D+01 -.784568394709D-08
     .242867259253D-09  .100000000000D+01  .148600000000D+04  .000000000000D+00
     .240000000000D+01  .000000000000D+00 -.111758708954D-07  .220000000000D+02
     .561606000000D+06  .400000000000D+01
14 08  7  5 14  0  0.0 -.247683376074D-03  .432009983342D-11  .000000000000D+00
     .103000000000D+03  .115343750000D+03  .396516516504D-08  .268594418939D+01
     .597164034843D-05  .383896171115D-02  .695325434208D-05  .515371034622D+04
     .568800000000D+06 -.447034835815D-07  .133304398652D+01 -.987201929092D-07
     .989047762015D+00  .258750000000D+03 -.218135240814D+01 -.779211028696D-08
     .232866842696D-09  .100000000000D+01  .148600000000D+04  .000000000000D+00
     .340000000000D+01  .000000000000D+00 -.884756445885D-08  .103000000000D+03
     .561606000000D+06  .400000000000D+01
15 08  7  5 14  0  0.0 -.137760303915D-03 -.625277607469D-11  .000000000000D+00
     .110000000000D+02  .138500000000D+03  .475591238856D-08 -.268289237989D+01
     .724010169506D-05  .670494744554D-03  .695325434208D-05  .515367669868D+04
     .568800000000D+06 -.372529029846D-08  .129075901823D+01  .670552253723D-07
     .957435873916D+00  .243375000000D+03 -.125315787915D+01 -.825855828782D-08
     .330728061866D-09  .100000000000D+01  .148600000000D+04  .000000000000D+00
     .240000000000D+01  .000000000000D+00 -.977888703346D-08  .110000000000D+02
     .561606000000D+06  .400000000000D+01
